[{"OBJECT_NAME":"SHIYAN-1 (SY-1)","OBJECT_ID":"2004-012A","EPOCH":"2026-03-09T17:40:34.066560","MEAN_MOTION":15.31043463,"ECCENTRICITY":0.00058726,"INCLINATION":97.8764,"RA_OF_ASC_NODE":140.5238,"ARG_OF_PERICENTER":23.6952,"MEAN_ANOMALY":336.4557,"EPHEMERIS_TYPE":0,"CLASSIFICATION_TYPE":"U","NORAD_CAT_ID":28220,"ELEMENT_SET_NO":999,"REV_AT_EPOCH":19586,"BSTAR":0.00054854449,"MEAN_MOTION_DOT":0.00016393,"MEAN_MOTION_DDOT":0},{"OBJECT_NAME":"STARLINK-36092","OBJECT_ID":"2025-281X","EPOCH":"2026-03-09T04:05:46.028832","MEAN_MOTION":15.27588836,"ECCENTRICITY":0.00011836,"INCLINATION":43.0018,"RA_OF_ASC_NODE":346.622,"ARG_OF_PERICENTER":269.248,"MEAN_ANOMALY":90.8236,"EPHEMERIS_TYPE":0,"CLASSIFICATION_TYPE":"U","NORAD_CAT_ID":66869,"ELEMENT_SET_NO":999,"REV_AT_EPOCH":1609,"BSTAR":0.00099106451,"MEAN_MOTION_DOT":0.00027117,"MEAN_MOTION_DDOT":0}]
