SHIYAN-1 (SY-1)         
1 28220U 04012A   26068.73650539  .00016393  00000+0  54854-3 0  9991
2 28220  97.8764 140.5238 0005873  23.6952 336.4557 15.31043463195862
STARLINK-36092          
1 66869U 25281X   26068.17067163  .00027117  00000+0  99106-3 0  9991
2 66869  43.0018 346.6220 0001183 269.2480  90.8236 15.27588836 16097
